[Satellite]
VERSION=1.1
NAME=SKCUBE
NICKNAME=SKCUBE
TLE1=1 42789U 17036AA  22342.10992466  .00023397  00000+0  69121-3 0  9992
TLE2=2 42789  97.1776  20.0912 0010116  65.6753 294.5546 15.34899229303669
STATUS=0
